start=new Date('2022-09-15T00:00:00.000Z').valueOf();
sats=[{"APOAPSIS":"540.916","CENTER_NAME":"EARTH","MEAN_MOTION":"15.08834470","PERIOD":"95.438","NORAD_CAT_ID":"52262","LAUNCH_DATE":"2022-04-21","OBJECT_TYPE":"PAYLOAD","MEAN_ANOMALY":"359.3543","OBJECT_ID":"2022-041B","SEMIMAJOR_AXIS":"6917.897","TIME_SYSTEM":"UTC","TLE_LINE2":"2 52262  53.2160  58.3228 0001668  52.4338 359.3543 15.08834470  1306","EPOCH":"2022-09-14T22:00:00.999936","FILE":"3574287","MEAN_ELEMENT_THEORY":"SGP4","RCS_SIZE":"LARGE","DECAY_DATE":null,"REF_FRAME":"TEME","EPHEMERIS_TYPE":"0","COUNTRY_CODE":"US","CLASSIFICATION_TYPE":"U","ELEMENT_SET_NO":"999","OBJECT_NAME":"STARLINK-3761","REV_AT_EPOCH":"130","RA_OF_ASC_NODE":"58.3228","ARG_OF_PERICENTER":"52.4338","MEAN_MOTION_DOT":"-0.00000936","BSTAR":"-0.00004071200000","PERIAPSIS":"538.608","GP_ID":"212614235","MEAN_MOTION_DDOT":"0.0000000000000","INCLINATION":"53.2160","TLE_LINE1":"1 52262U 22041B   22257.91667824 -.00000936  00000-0 -40712-4 0  9995","SITE":"AFETR","ECCENTRICITY":"0.00016680"},{"RCS_SIZE":"LARGE","DECAY_DATE":null,"REF_FRAME":"TEME","EPOCH":"2022-09-14T22:00:00.999936","FILE":"3574287","MEAN_ELEMENT_THEORY":"SGP4","CLASSIFICATION_TYPE":"U","COUNTRY_CODE":"US","EPHEMERIS_TYPE":"0","OBJECT_NAME":"STARLINK-3786","ELEMENT_SET_NO":"999","RA_OF_ASC_NODE":"58.3251","ARG_OF_PERICENTER":"50.1174","REV_AT_EPOCH":"130","GP_ID":"212612995","PERIAPSIS":"538.688","MEAN_MOTION_DOT":"0.00050358","BSTAR":"0.00316260000000","MEAN_MOTION_DDOT":"0.0000000000000","INCLINATION":"53.2167","ECCENTRICITY":"0.00016780","TLE_LINE1":"1 52263U 22041C   22257.91667824  .00050358  00000-0  31626-2 0  9999","SITE":"AFETR","MEAN_MOTION":"15.08806209","PERIOD":"95.440","CENTER_NAME":"EARTH","APOAPSIS":"541.010","OBJECT_TYPE":"PAYLOAD","NORAD_CAT_ID":"52263","LAUNCH_DATE":"2022-04-21","MEAN_ANOMALY":"6.8380","SEMIMAJOR_AXIS":"6917.984","OBJECT_ID":"2022-041C","TLE_LINE2":"2 52263  53.2167  58.3251 0001678  50.1174   6.8380 15.08806209  1306","TIME_SYSTEM":"UTC"},{"PERIOD":"95.439","MEAN_MOTION":"15.08823758","APOAPSIS":"540.804","CENTER_NAME":"EARTH","OBJECT_TYPE":"PAYLOAD","LAUNCH_DATE":"2022-04-21","NORAD_CAT_ID":"52264","MEAN_ANOMALY":"36.3495","OBJECT_ID":"2022-041D","SEMIMAJOR_AXIS":"6917.930","TIME_SYSTEM":"UTC","TLE_LINE2":"2 52264  53.2170  58.3268 0001459  60.6264  36.3495 15.08823758  1305","DECAY_DATE":null,"REF_FRAME":"TEME","RCS_SIZE":"LARGE","FILE":"3574287","MEAN_ELEMENT_THEORY":"SGP4","EPOCH":"2022-09-14T22:00:00.999936","CLASSIFICATION_TYPE":"U","EPHEMERIS_TYPE":"0","COUNTRY_CODE":"US","OBJECT_NAME":"STARLINK-3795","ELEMENT_SET_NO":"999","RA_OF_ASC_NODE":"58.3268","ARG_OF_PERICENTER":"60.6264","REV_AT_EPOCH":"130","PERIAPSIS":"538.786","GP_ID":"212614243","BSTAR":"0.00284270000000","MEAN_MOTION_DOT":"0.00045224","MEAN_MOTION_DDOT":"0.0000000000000","INCLINATION":"53.2170","ECCENTRICITY":"0.00014590","SITE":"AFETR","TLE_LINE1":"1 52264U 22041D   22257.91667824  .00045224  00000-0  28427-2 0  9991"},{"OBJECT_NAME":"STARLINK-3740","ELEMENT_SET_NO":"999","ARG_OF_PERICENTER":"66.3964","RA_OF_ASC_NODE":"58.3259","REV_AT_EPOCH":"130","RCS_SIZE":"LARGE","REF_FRAME":"TEME","DECAY_DATE":null,"EPOCH":"2022-09-14T22:00:00.999936","MEAN_ELEMENT_THEORY":"SGP4","FILE":"3574287","CLASSIFICATION_TYPE":"U","COUNTRY_CODE":"US","EPHEMERIS_TYPE":"0","INCLINATION":"53.2173","ECCENTRICITY":"0.00014730","TLE_LINE1":"1 52265U 22041E   22257.91667824  .00004946  00000-0  32868-3 0  9993","SITE":"AFETR","PERIAPSIS":"538.744","GP_ID":"212614493","MEAN_MOTION_DOT":"0.00004946","BSTAR":"0.00032868000000","MEAN_MOTION_DDOT":"0.0000000000000","OBJECT_TYPE":"PAYLOAD","NORAD_CAT_ID":"52265","LAUNCH_DATE":"2022-04-21","MEAN_ANOMALY":"50.5419","MEAN_MOTION":"15.08834171","PERIOD":"95.438","APOAPSIS":"540.782","CENTER_NAME":"EARTH","SEMIMAJOR_AXIS":"6917.898","OBJECT_ID":"2022-041E","TLE_LINE2":"2 52265  53.2173  58.3259 0001473  66.3964  50.5419 15.08834171  1300","TIME_SYSTEM":"UTC"},{"OBJECT_ID":"2022-041F","SEMIMAJOR_AXIS":"6917.895","TIME_SYSTEM":"UTC","TLE_LINE2":"2 52266  53.2170  58.3242 0001561  55.7112  81.2687 15.08835069  1300","OBJECT_TYPE":"PAYLOAD","NORAD_CAT_ID":"52266","LAUNCH_DATE":"2022-04-21","MEAN_ANOMALY":"81.2687","MEAN_MOTION":"15.08835069","PERIOD":"95.438","APOAPSIS":"540.840","CENTER_NAME":"EARTH","INCLINATION":"53.2170","ECCENTRICITY":"0.00015610","TLE_LINE1":"1 52266U 22041F   22257.91667824  .00004632  00000-0  30897-3 0  9996","SITE":"AFETR","GP_ID":"212614735","PERIAPSIS":"538.681","MEAN_MOTION_DOT":"0.00004632","BSTAR":"0.00030897000000","MEAN_MOTION_DDOT":"0.0000000000000","OBJECT_NAME":"STARLINK-3739","ELEMENT_SET_NO":"999","RA_OF_ASC_NODE":"58.3242","REV_AT_EPOCH":"130","ARG_OF_PERICENTER":"55.7112","RCS_SIZE":"LARGE","REF_FRAME":"TEME","DECAY_DATE":null,"EPOCH":"2022-09-14T22:00:00.999936","MEAN_ELEMENT_THEORY":"SGP4","FILE":"3574287","CLASSIFICATION_TYPE":"U","EPHEMERIS_TYPE":"0","COUNTRY_CODE":"US"},{"ELEMENT_SET_NO":"999","OBJECT_NAME":"STARLINK-3748","REV_AT_EPOCH":"130","ARG_OF_PERICENTER":"56.4603","RA_OF_ASC_NODE":"58.3229","EPOCH":"2022-09-14T22:00:00.999936","FILE":"3574287","MEAN_ELEMENT_THEORY":"SGP4","RCS_SIZE":"LARGE","REF_FRAME":"TEME","DECAY_DATE":null,"EPHEMERIS_TYPE":"0","COUNTRY_CODE":"US","CLASSIFICATION_TYPE":"U","INCLINATION":"53.2169","TLE_LINE1":"1 52267U 22041G   22257.91667824  .00002882  00000-0  19914-3 0  9999","SITE":"AFETR","ECCENTRICITY":"0.00015380","MEAN_MOTION_DOT":"0.00002882","BSTAR":"0.00019914000000","PERIAPSIS":"538.702","GP_ID":"212613495","MEAN_MOTION_DDOT":"0.0000000000000","NORAD_CAT_ID":"52267","LAUNCH_DATE":"2022-04-21","OBJECT_TYPE":"PAYLOAD","MEAN_ANOMALY":"100.5238","APOAPSIS":"540.829","CENTER_NAME":"EARTH","MEAN_MOTION":"15.08833425","PERIOD":"95.438","OBJECT_ID":"2022-041G","SEMIMAJOR_AXIS":"6917.900","TIME_SYSTEM":"UTC","TLE_LINE2":"2 52267  53.2169  58.3229 0001538  56.4603 100.5238 15.08833425  1302"},{"TIME_SYSTEM":"UTC","TLE_LINE2":"2 52268  53.2190  58.3276 0001791  52.4228 164.5196 15.08811182  1308","SEMIMAJOR_AXIS":"6917.968","OBJECT_ID":"2022-041H","PERIOD":"95.439","MEAN_MOTION":"15.08811182","APOAPSIS":"541.072","CENTER_NAME":"EARTH","MEAN_ANOMALY":"164.5196","OBJECT_TYPE":"PAYLOAD","LAUNCH_DATE":"2022-04-21","NORAD_CAT_ID":"52268","MEAN_MOTION_DDOT":"0.0000000000000","PERIAPSIS":"538.594","GP_ID":"212613744","BSTAR":"0.00324560000000","MEAN_MOTION_DOT":"0.00051704","ECCENTRICITY":"0.00017910","SITE":"AFETR","TLE_LINE1":"1 52268U 22041H   22257.91667824  .00051704  00000-0  32456-2 0  9992","INCLINATION":"53.2190","CLASSIFICATION_TYPE":"U","EPHEMERIS_TYPE":"0","COUNTRY_CODE":"US","DECAY_DATE":null,"REF_FRAME":"TEME","RCS_SIZE":"LARGE","FILE":"3574287","MEAN_ELEMENT_THEORY":"SGP4","EPOCH":"2022-09-14T22:00:00.999936","REV_AT_EPOCH":"130","ARG_OF_PERICENTER":"52.4228","RA_OF_ASC_NODE":"58.3276","OBJECT_NAME":"STARLINK-3746","ELEMENT_SET_NO":"999"},{"PERIOD":"95.439","MEAN_MOTION":"15.08823766","APOAPSIS":"540.981","CENTER_NAME":"EARTH","OBJECT_TYPE":"PAYLOAD","LAUNCH_DATE":"2022-04-21","NORAD_CAT_ID":"52269","MEAN_ANOMALY":"123.2575","OBJECT_ID":"2022-041J","SEMIMAJOR_AXIS":"6917.930","TIME_SYSTEM":"UTC","TLE_LINE2":"2 52269  53.2186  58.3272 0001714  53.7162 123.2575 15.08823766  1300","REF_FRAME":"TEME","DECAY_DATE":null,"RCS_SIZE":"LARGE","MEAN_ELEMENT_THEORY":"SGP4","FILE":"3574287","EPOCH":"2022-09-14T22:00:00.999936","CLASSIFICATION_TYPE":"U","EPHEMERIS_TYPE":"0","COUNTRY_CODE":"US","OBJECT_NAME":"STARLINK-3791","ELEMENT_SET_NO":"999","REV_AT_EPOCH":"130","ARG_OF_PERICENTER":"53.7162","RA_OF_ASC_NODE":"58.3272","PERIAPSIS":"538.609","GP_ID":"212613994","BSTAR":"0.00110370000000","MEAN_MOTION_DOT":"0.00017313","MEAN_MOTION_DDOT":"0.0000000000000","INCLINATION":"53.2186","ECCENTRICITY":"0.00017140","SITE":"AFETR","TLE_LINE1":"1 52269U 22041J   22257.91667824  .00017313  00000-0  11037-2 0  9993"},{"SEMIMAJOR_AXIS":"6917.953","OBJECT_ID":"2022-041K","TLE_LINE2":"2 52270  53.2200  58.3261 0001560  59.6566 172.0892 15.08816277  1302","TIME_SYSTEM":"UTC","PERIOD":"95.439","MEAN_MOTION":"15.08816277","CENTER_NAME":"EARTH","APOAPSIS":"540.897","OBJECT_TYPE":"PAYLOAD","LAUNCH_DATE":"2022-04-21","NORAD_CAT_ID":"52270","MEAN_ANOMALY":"172.0892","PERIAPSIS":"538.739","GP_ID":"212614236","BSTAR":"0.00299760000000","MEAN_MOTION_DOT":"0.00047711","MEAN_MOTION_DDOT":"0.0000000000000","INCLINATION":"53.2200","ECCENTRICITY":"0.00015600","SITE":"AFETR","TLE_LINE1":"1 52270U 22041K   22257.91667824  .00047711  00000-0  29976-2 0  9991","DECAY_DATE":null,"REF_FRAME":"TEME","RCS_SIZE":"LARGE","MEAN_ELEMENT_THEORY":"SGP4","FILE":"3574287","EPOCH":"2022-09-14T22:00:00.999936","CLASSIFICATION_TYPE":"U","EPHEMERIS_TYPE":"0","COUNTRY_CODE":"US","OBJECT_NAME":"STARLINK-3804","ELEMENT_SET_NO":"999","ARG_OF_PERICENTER":"59.6566","RA_OF_ASC_NODE":"58.3261","REV_AT_EPOCH":"130"},{"TLE_LINE2":"2 52271  53.2184  58.3259 0001701  49.2993 147.7062 15.08814175  1300","TIME_SYSTEM":"UTC","SEMIMAJOR_AXIS":"6917.959","OBJECT_ID":"2022-041L","MEAN_ANOMALY":"147.7062","LAUNCH_DATE":"2022-04-21","NORAD_CAT_ID":"52271","OBJECT_TYPE":"PAYLOAD","APOAPSIS":"541.001","CENTER_NAME":"EARTH","PERIOD":"95.439","MEAN_MOTION":"15.08814175","SITE":"AFETR","TLE_LINE1":"1 52271U 22041L   22257.91667824  .00051539  00000-0  32351-2 0  9996","ECCENTRICITY":"0.00017010","INCLINATION":"53.2184","MEAN_MOTION_DDOT":"0.0000000000000","BSTAR":"0.00323510000000","MEAN_MOTION_DOT":"0.00051539","GP_ID":"212612996","PERIAPSIS":"538.648","RA_OF_ASC_NODE":"58.3259","ARG_OF_PERICENTER":"49.2993","REV_AT_EPOCH":"130","ELEMENT_SET_NO":"999","OBJECT_NAME":"STARLINK-3788","COUNTRY_CODE":"US","EPHEMERIS_TYPE":"0","CLASSIFICATION_TYPE":"U","MEAN_ELEMENT_THEORY":"SGP4","FILE":"3574287","EPOCH":"2022-09-14T22:00:00.999936","DECAY_DATE":null,"REF_FRAME":"TEME","RCS_SIZE":"LARGE"}];
